{
  "type": "FeatureCollection",
  "features": [
    {
      "type": "Feature",
      "properties": {
        "norad_id": 66538,
        "name": "STARLINK-35577",
        "group": "last-30-days",
        "lat": -42.19434881241935,
        "lon": -5.856901238758531,
        "alt_km": 416.3608226089327,
        "timestamp": "2025-12-09T20:37:08.055880+00:00",
        "meta_object_name": "STARLINK-35577",
        "meta_object_id": "2025-265Y",
        "meta_epoch": "2025-12-09T14:00:01.999872",
        "meta_mean_motion": 15.51915103,
        "meta_eccentricity": 0.00013461,
        "meta_inclination": 43.0002,
        "meta_ra_of_asc_node": 72.3795,
        "meta_arg_of_pericenter": 284.3177,
        "meta_mean_anomaly": 253.5716,
        "meta_ephemeris_type": 0,
        "meta_classification_type": "U",
        "meta_norad_cat_id": 66538,
        "meta_element_set_no": 999,
        "meta_rev_at_epoch": 448,
        "meta_bstar": -0.031098274,
        "meta_mean_motion_dot": -0.01709219,
        "meta_mean_motion_ddot": 0,
        "tle_line1": "1 66538U 25265Y   25343.58335648 -.01709219  00000+0 -31098-1 0  9999",
        "tle_line2": "2 66538  43.0002  72.3795 0001346 284.3177 253.5716 15.51915103  4484"
      },
      "geometry": {
        "type": "Point",
        "coordinates": [
          -5.856901238758531,
          -42.19434881241935
        ]
      }
    },
    {
      "type": "Feature",
      "properties": {
        "norad_id": 66539,
        "name": "STARLINK-35697",
        "group": "last-30-days",
        "lat": -41.864510828340585,
        "lon": -3.3255581116018,
        "alt_km": 416.365086655931,
        "timestamp": "2025-12-09T20:37:08.055893+00:00",
        "meta_object_name": "STARLINK-35697",
        "meta_object_id": "2025-265Z",
        "meta_epoch": "2025-12-09T14:00:01.999872",
        "meta_mean_motion": 15.51914485,
        "meta_eccentricity": 0.00013046,
        "meta_inclination": 43.0001,
        "meta_ra_of_asc_node": 72.3744,
        "meta_arg_of_pericenter": 283.4334,
        "meta_mean_anomaly": 256.3697,
        "meta_ephemeris_type": 0,
        "meta_classification_type": "U",
        "meta_norad_cat_id": 66539,
        "meta_element_set_no": 999,
        "meta_rev_at_epoch": 448,
        "meta_bstar": -0.031004354,
        "meta_mean_motion_dot": -0.0170455,
        "meta_mean_motion_ddot": 0,
        "tle_line1": "1 66539U 25265Z   25343.58335648 -.01704550  00000+0 -31004-1 0  9990",
        "tle_line2": "2 66539  43.0001  72.3744 0001304 283.4334 256.3697 15.51914485  4488"
      },
      "geometry": {
        "type": "Point",
        "coordinates": [
          -3.3255581116018,
          -41.864510828340585
        ]
      }
    },
    {
      "type": "Feature",
      "properties": {
        "norad_id": 66540,
        "name": "STARLINK-35818",
        "group": "last-30-days",
        "lat": -41.47916741957023,
        "lon": -0.8198624766139493,
        "alt_km": 416.3397379850476,
        "timestamp": "2025-12-09T20:37:08.055906+00:00",
        "meta_object_name": "STARLINK-35818",
        "meta_object_id": "2025-265AA",
        "meta_epoch": "2025-12-09T14:00:01.999872",
        "meta_mean_motion": 15.51914204,
        "meta_eccentricity": 0.00013167,
        "meta_inclination": 43,
        "meta_ra_of_asc_node": 72.37,
        "meta_arg_of_pericenter": 283.9258,
        "meta_mean_anomaly": 257.7941,
        "meta_ephemeris_type": 0,
        "meta_classification_type": "U",
        "meta_norad_cat_id": 66540,
        "meta_element_set_no": 999,
        "meta_rev_at_epoch": 448,
        "meta_bstar": -0.030996027,
        "meta_mean_motion_dot": -0.01704131,
        "meta_mean_motion_ddot": 0,
        "tle_line1": "1 66540U 25265AA  25343.58335648 -.01704131  00000+0 -30996-1 0  9996",
        "tle_line2": "2 66540  43.0000  72.3700 0001316 283.9258 257.7941 15.51914204  4480"
      },
      "geometry": {
        "type": "Point",
        "coordinates": [
          -0.8198624766139493,
          -41.47916741957023
        ]
      }
    },
    {
      "type": "Feature",
      "properties": {
        "norad_id": 66541,
        "name": "STARLINK-35796",
        "group": "last-30-days",
        "lat": -41.04024515695694,
        "lon": 1.6532732872174298,
        "alt_km": 416.3926222586897,
        "timestamp": "2025-12-09T20:37:08.055916+00:00",
        "meta_object_name": "STARLINK-35796",
        "meta_object_id": "2025-265AB",
        "meta_epoch": "2025-12-09T14:00:01.999872",
        "meta_mean_motion": 15.51910601,
        "meta_eccentricity": 0.00012161,
        "meta_inclination": 43.0003,
        "meta_ra_of_asc_node": 72.3643,
        "meta_arg_of_pericenter": 282.6957,
        "meta_mean_anomaly": 260.9427,
        "meta_ephemeris_type": 0,
        "meta_classification_type": "U",
        "meta_norad_cat_id": 66541,
        "meta_element_set_no": 999,
        "meta_rev_at_epoch": 448,
        "meta_bstar": -0.030914434,
        "meta_mean_motion_dot": -0.01699871,
        "meta_mean_motion_ddot": 0,
        "tle_line1": "1 66541U 25265AB  25343.58335648 -.01699871  00000+0 -30914-1 0  9991",
        "tle_line2": "2 66541  43.0003  72.3643 0001216 282.6957 260.9427 15.51910601  4483"
      },
      "geometry": {
        "type": "Point",
        "coordinates": [
          1.6532732872174298,
          -41.04024515695694
        ]
      }
    },
    {
      "type": "Feature",
      "properties": {
        "norad_id": 66542,
        "name": "STARLINK-35833",
        "group": "last-30-days",
        "lat": -40.5480473446291,
        "lon": 4.095173314769014,
        "alt_km": 416.2454931300672,
        "timestamp": "2025-12-09T20:37:08.055926+00:00",
        "meta_object_name": "STARLINK-35833",
        "meta_object_id": "2025-265AC",
        "meta_epoch": "2025-12-09T14:00:01.999872",
        "meta_mean_motion": 15.51912913,
        "meta_eccentricity": 0.00014026,
        "meta_inclination": 43.0001,
        "meta_ra_of_asc_node": 72.3603,
        "meta_arg_of_pericenter": 286.3227,
        "meta_mean_anomaly": 259.2346,
        "meta_ephemeris_type": 0,
        "meta_classification_type": "U",
        "meta_norad_cat_id": 66542,
        "meta_element_set_no": 999,
        "meta_rev_at_epoch": 448,
        "meta_bstar": -0.031014384,
        "meta_mean_motion_dot": -0.01705005,
        "meta_mean_motion_ddot": 0,
        "tle_line1": "1 66542U 25265AC  25343.58335648 -.01705005  00000+0 -31014-1 0  9991",
        "tle_line2": "2 66542  43.0001  72.3603 0001402 286.3227 259.2346 15.51912913  4485"
      },
      "geometry": {
        "type": "Point",
        "coordinates": [
          4.095173314769014,
          -40.5480473446291
        ]
      }
    },
    {
      "type": "Feature",
      "properties": {
        "norad_id": 66543,
        "name": "STARLINK-35315",
        "group": "last-30-days",
        "lat": -40.00464800393026,
        "lon": 6.500299341710069,
        "alt_km": 416.2457350807508,
        "timestamp": "2025-12-09T20:37:08.055960+00:00",
        "meta_object_name": "STARLINK-35315",
        "meta_object_id": "2025-265AD",
        "meta_epoch": "2025-12-09T14:00:01.999872",
        "meta_mean_motion": 15.51914756,
        "meta_eccentricity": 0.0001375,
        "meta_inclination": 43,
        "meta_ra_of_asc_node": 72.3549,
        "meta_arg_of_pericenter": 283.5989,
        "meta_mean_anomaly": 263.8771,
        "meta_ephemeris_type": 0,
        "meta_classification_type": "U",
        "meta_norad_cat_id": 66543,
        "meta_element_set_no": 999,
        "meta_rev_at_epoch": 437,
        "meta_bstar": -0.031107598,
        "meta_mean_motion_dot": -0.01709673,
        "meta_mean_motion_ddot": 0,
        "tle_line1": "1 66543U 25265AD  25343.58335648 -.01709673  00000+0 -31108-1 0  9991",
        "tle_line2": "2 66543  43.0000  72.3549 0001375 283.5989 263.8771 15.51914756  4375"
      },
      "geometry": {
        "type": "Point",
        "coordinates": [
          6.500299341710069,
          -40.00464800393026
        ]
      }
    },
    {
      "type": "Feature",
      "properties": {
        "norad_id": 66544,
        "name": "STARLINK-35728",
        "group": "last-30-days",
        "lat": -39.41394145205414,
        "lon": 8.860391125505526,
        "alt_km": 416.29761430432245,
        "timestamp": "2025-12-09T20:37:08.055971+00:00",
        "meta_object_name": "STARLINK-35728",
        "meta_object_id": "2025-265AE",
        "meta_epoch": "2025-12-09T14:00:01.999872",
        "meta_mean_motion": 15.51912331,
        "meta_eccentricity": 0.00012612,
        "meta_inclination": 43.0001,
        "meta_ra_of_asc_node": 72.3504,
        "meta_arg_of_pericenter": 282.9783,
        "meta_mean_anomaly": 266.4127,
        "meta_ephemeris_type": 0,
        "meta_classification_type": "U",
        "meta_norad_cat_id": 66544,
        "meta_element_set_no": 999,
        "meta_rev_at_epoch": 448,
        "meta_bstar": -0.030982931,
        "meta_mean_motion_dot": -0.01703356,
        "meta_mean_motion_ddot": 0,
        "tle_line1": "1 66544U 25265AE  25343.58335648 -.01703356  00000+0 -30983-1 0  9994",
        "tle_line2": "2 66544  43.0001  72.3504 0001261 282.9783 266.4127 15.51912331  4480"
      },
      "geometry": {
        "type": "Point",
        "coordinates": [
          8.860391125505526,
          -39.41394145205414
        ]
      }
    }
  ]
}